OBJECT_NAME,OBJECT_ID,EPOCH,MEAN_MOTION,ECCENTRICITY,INCLINATION,RA_OF_ASC_NODE,ARG_OF_PERICENTER,MEAN_ANOMALY,EPHEMERIS_TYPE,CLASSIFICATION_TYPE,NORAD_CAT_ID,ELEMENT_SET_NO,REV_AT_EPOCH,BSTAR,MEAN_MOTION_DOT,MEAN_MOTION_DDOT
SAUDISAT 1C (SO-50),2002-058C,2026-07-15T22:45:37.251648,14.83099100,.00745078,64.5518,39.9948,257.1241,102.1534,0,U,27607,999,26872,.59746653E-4,.353E-5,0
SAUDISAT 2,2004-025F,2026-07-15T22:43:42.742272,14.56698464,.00241111,98.5521,197.6738,205.8266,154.1730,0,U,28371,999,16993,.31378067E-4,.91E-6,0
SAUDISAT 3,2007-012B,2026-07-15T19:40:02.343648,14.71440485,.00156346,98.1467,147.2412,132.8721,227.3802,0,U,31118,999,3195,.23504391E-4,.95E-6,0
PISAT,2016-059B,2026-07-15T22:57:17.028576,14.69030442,.00304595,97.8191,196.1749,112.4897,247.9539,0,U,41784,999,52396,.81603379E-4,.435E-5,0
FLYING LAPTOP,2017-042G,2026-07-15T23:31:00.594336,15.01316232,.00196688,97.4805,351.4297,30.0064,330.2284,0,U,42831,999,49077,.15819555E-3,.1986E-4,0
SALSAT,2020-068K,2026-07-15T22:07:44.579136,15.30178067,.0009261,97.8855,201.7454,190.1996,169.9057,0,U,46495,999,31975,.13963713E-3,.3996E-4,0
